{"type": "FeatureCollection", "features": [ {"type": "Feature", "properties": {"norad_id": 38779, "name": "GSAT-10 (GAGAN/PRN 128)", "group": "gnss", "lat": 0.050162045601354364, "lon": -8.314784863248798, "alt_km": 35792.22313946963, "timestamp": "2025-12-25T11:37:44.677880+00:00", "meta": {"OBJECT_NAME": "GSAT-10 (GAGAN/PRN 128)", "OBJECT_ID": "2012-051B", "EPOCH": "2025-12-24T22:22:53.622048", "MEAN_MOTION": 1.00271102, "ECCENTRICITY": 0.0002181, "INCLINATION": 0.0626, "RA_OF_ASC_NODE": 262.1776, "ARG_OF_PERICENTER": 219.7233, "MEAN_ANOMALY": 30.5548, "EPHEMERIS_TYPE": 0, "CLASSIFICATION_TYPE": "U", "NORAD_CAT_ID": 38779, "ELEMENT_SET_NO": 999, "REV_AT_EPOCH": 4835, "BSTAR": 0, "MEAN_MOTION_DOT": -1.44e-06, "MEAN_MOTION_DDOT": 0}, "tle": {"line1": "1 38779U 12051B   25358.93256507 -.00000144  00000+0  00000+0 0  9991", "line2": "2 38779   0.0626 262.1776 0002181 219.7233  30.5548  1.00271102 48359"}}, "geometry": {"type": "Point", "coordinates": [-8.314784863248798, 0.050162045601354364]}}, {"type": "Feature", "properties": {"norad_id": 38833, "name": "GPS BIIF-3  (PRN 24)", "group": "gnss", "lat": 40.78166443908533, "lon": -68.87735211763513, "alt_km": 19947.712781513153, "timestamp": "2025-12-25T11:37:44.677892+00:00", "meta": {"OBJECT_NAME": "GPS BIIF-3  (PRN 24)", "OBJECT_ID": "2012-053A", "EPOCH": "2025-12-24T07:38:21.199488", "MEAN_MOTION": 2.00565058, "ECCENTRICITY": 0.01760755, "INCLINATION": 53.5598, "RA_OF_ASC_NODE": 150.7645, "ARG_OF_PERICENTER": 64.1634, "MEAN_ANOMALY": 297.6191, "EPHEMERIS_TYPE": 0, "CLASSIFICATION_TYPE": "U", "NORAD_CAT_ID": 38833, "ELEMENT_SET_NO": 999, "REV_AT_EPOCH": 9593, "BSTAR": 0, "MEAN_MOTION_DOT": 8.3e-07, "MEAN_MOTION_DDOT": 0}, "tle": {"line1": "1 38833U 12053A   25358.31830092  .00000083  00000+0  00000+0 0  9994", "line2": "2 38833  53.5598 150.7645 0176075  64.1634 297.6191  2.00565058 95932"}}, "geometry": {"type": "Point", "coordinates": [-68.87735211763513, 40.78166443908533]}}, {"type": "Feature", "properties": {"norad_id": 38857, "name": "GSAT0103 (GALILEO-FM3)", "group": "gnss", "lat": 33.43566291515242, "lon": -100.43081812745562, "alt_km": 23224.082894407096, "timestamp": "2025-12-25T11:37:44.677903+00:00", "meta": {"OBJECT_NAME": "GSAT0103 (GALILEO-FM3)", "OBJECT_ID": "2012-055A", "EPOCH": "2025-12-22T21:54:43.252704", "MEAN_MOTION": 1.70473351, "ECCENTRICITY": 0.0002995, "INCLINATION": 55.698, "RA_OF_ASC_NODE": 106.3873, "ARG_OF_PERICENTER": 269.858, "MEAN_ANOMALY": 90.0891, "EPHEMERIS_TYPE": 0, "CLASSIFICATION_TYPE": "U", "NORAD_CAT_ID": 38857, "ELEMENT_SET_NO": 999, "REV_AT_EPOCH": 8200, "BSTAR": 0, "MEAN_MOTION_DOT": 1e-07, "MEAN_MOTION_DDOT": 0}, "tle": {"line1": "1 38857U 12055A   25356.91300061  .00000010  00000+0  00000+0 0  9994", "line2": "2 38857  55.6980 106.3873 0002995 269.8580  90.0891  1.70473351 82005"}}, "geometry": {"type": "Point", "coordinates": [-100.43081812745562, 33.43566291515242]}}, {"type": "Feature", "properties": {"norad_id": 38953, "name": "BEIDOU-2 G6 (C02)", "group": "gnss", "lat": -3.9578931734638214, "lon": -7.397988360020249, "alt_km": 35753.866485532984, "timestamp": "2025-12-25T11:37:44.677917+00:00", "meta": {"OBJECT_NAME": "BEIDOU-2 G6 (C02)", "OBJECT_ID": "2012-059A", "EPOCH": "2025-12-25T01:00:51.717600", "MEAN_MOTION": 1.00274262, "ECCENTRICITY": 0.0007997, "INCLINATION": 3.9787, "RA_OF_ASC_NODE": 75.3898, "ARG_OF_PERICENTER": 294.4199, "MEAN_ANOMALY": 183.1448, "EPHEMERIS_TYPE": 0, "CLASSIFICATION_TYPE": "U", "NORAD_CAT_ID": 38953, "ELEMENT_SET_NO": 999, "REV_AT_EPOCH": 4816, "BSTAR": 0, "MEAN_MOTION_DOT": -1.55e-06, "MEAN_MOTION_DDOT": 0}, "tle": {"line1": "1 38953U 12059A   25359.04226525 -.00000155  00000+0  00000+0 0  9995", "line2": "2 38953   3.9787  75.3898 0007997 294.4199 183.1448  1.00274262 48166"}}, "geometry": {"type": "Point", "coordinates": [-7.397988360020249, -3.9578931734638214]}}, {"type": "Feature", "properties": {"norad_id": 38977, "name": "LUCH 5B (SDCM/PRN 125)", "group": "gnss", "lat": -3.5772539947113735, "lon": -107.93907577593461, "alt_km": 35758.70572216311, "timestamp": "2025-12-25T11:37:44.677930+00:00", "meta": {"OBJECT_NAME": "LUCH 5B (SDCM/PRN 125)", "OBJECT_ID": "2012-061A", "EPOCH": "2025-12-24T23:17:34.998144", "MEAN_MOTION": 1.00271775, "ECCENTRICITY": 0.000662, "INCLINATION": 10.1058, "RA_OF_ASC_NODE": 51.5875, "ARG_OF_PERICENTER": 196.0598, "MEAN_ANOMALY": 179.1583, "EPHEMERIS_TYPE": 0, "CLASSIFICATION_TYPE": "U", "NORAD_CAT_ID": 38977, "ELEMENT_SET_NO": 999, "REV_AT_EPOCH": 4786, "BSTAR": 0, "MEAN_MOTION_DOT": -1.21e-06, "MEAN_MOTION_DDOT": 0}, "tle": {"line1": "1 38977U 12061A   25358.97054396 -.00000121  00000+0  00000+0 0  9993", "line2": "2 38977  10.1058  51.5875 0006620 196.0598 179.1583  1.00271775 47863"}}, "geometry": {"type": "Point", "coordinates": [-107.93907577593461, -3.5772539947113735]}}, {"type": "Feature", "properties": {"norad_id": 39155, "name": "COSMOS 2485 (747)", "group": "gnss", "lat": 24.182966461943238, "lon": -112.44772102736205, "alt_km": 19112.93447935342, "timestamp": "2025-12-25T11:37:44.677942+00:00", "meta": {"OBJECT_NAME": "COSMOS 2485 (747)", "OBJECT_ID": "2013-019A", "EPOCH": "2025-12-23T21:02:08.431872", "MEAN_MOTION": 2.13103241, "ECCENTRICITY": 0.00249991, "INCLINATION": 65.319, "RA_OF_ASC_NODE": 79.4929, "ARG_OF_PERICENTER": 230.4814, "MEAN_ANOMALY": 129.3448, "EPHEMERIS_TYPE": 0, "CLASSIFICATION_TYPE": "U", "NORAD_CAT_ID": 39155, "ELEMENT_SET_NO": 999, "REV_AT_EPOCH": 9854, "BSTAR": 0, "MEAN_MOTION_DOT": 2e-08, "MEAN_MOTION_DDOT": 0}, "tle": {"line1": "1 39155U 13019A   25357.87648648  .00000002  00000+0  00000+0 0  9990", "line2": "2 39155  65.3190  79.4929 0024999 230.4814 129.3448  2.13103241 98548"}}, "geometry": {"type": "Point", "coordinates": [-112.44772102736205, 24.182966461943238]}}, {"type": "Feature", "properties": {"norad_id": 39166, "name": "GPS BIIF-4  (PRN 27)", "group": "gnss", "lat": -32.792887743621094, "lon": 123.23147462911312, "alt_km": 20551.18074133707, "timestamp": "2025-12-25T11:37:44.677956+00:00", "meta": {"OBJECT_NAME": "GPS BIIF-4  (PRN 27)", "OBJECT_ID": "2013-023A", "EPOCH": "2025-12-24T04:22:45.402816", "MEAN_MOTION": 2.00564584, "ECCENTRICITY": 0.01386043, "INCLINATION": 54.6422, "RA_OF_ASC_NODE": 276.1031, "ARG_OF_PERICENTER": 48.7593, "MEAN_ANOMALY": 312.474, "EPHEMERIS_TYPE": 0, "CLASSIFICATION_TYPE": "U", "NORAD_CAT_ID": 39166, "ELEMENT_SET_NO": 999, "REV_AT_EPOCH": 9237, "BSTAR": 0, "MEAN_MOTION_DOT": -1.6e-07, "MEAN_MOTION_DDOT": 0}, "tle": {"line1": "1 39166U 13023A   25358.18246994 -.00000016  00000+0  00000+0 0  9996", "line2": "2 39166  54.6422 276.1031 0138604  48.7593 312.4740  2.00564584 92374"}}, "geometry": {"type": "Point", "coordinates": [123.23147462911312, -32.792887743621094]}}, {"type": "Feature", "properties": {"norad_id": 39199, "name": "IRNSS-1A", "group": "gnss", "lat": -34.373304958869035, "lon": -39.05539835185698, "alt_km": 35717.962594040255, "timestamp": "2025-12-25T11:37:44.677968+00:00", "meta": {"OBJECT_NAME": "IRNSS-1A", "OBJECT_ID": "2013-034A", "EPOCH": "2025-12-24T18:29:47.559840", "MEAN_MOTION": 1.00273605, "ECCENTRICITY": 0.00238143, "INCLINATION": 35.3368, "RA_OF_ASC_NODE": 66.3779, "ARG_OF_PERICENTER": 212.7296, "MEAN_ANOMALY": 146.6998, "EPHEMERIS_TYPE": 0, "CLASSIFICATION_TYPE": "U", "NORAD_CAT_ID": 39199, "ELEMENT_SET_NO": 999, "REV_AT_EPOCH": 4561, "BSTAR": 0, "MEAN_MOTION_DOT": 7.9e-07, "MEAN_MOTION_DDOT": 0}, "tle": {"line1": "1 39199U 13034A   25358.77068935  .00000079  00000+0  00000+0 0  9994", "line2": "2 39199  35.3368  66.3779 0023814 212.7296 146.6998  1.00273605 45619"}}, "geometry": {"type": "Point", "coordinates": [-39.05539835185698, -34.373304958869035]}}, {"type": "Feature", "properties": {"norad_id": 39533, "name": "GPS BIIF-5  (PRN 30)", "group": "gnss", "lat": -33.72922837187381, "lon": 5.912640968252643, "alt_km": 19976.698622622036, "timestamp": "2025-12-25T11:37:44.677979+00:00", "meta": {"OBJECT_NAME": "GPS BIIF-5  (PRN 30)", "OBJECT_ID": "2014-008A", "EPOCH": "2025-12-23T16:16:25.020768", "MEAN_MOTION": 2.00548852, "ECCENTRICITY": 0.00795532, "INCLINATION": 53.5993, "RA_OF_ASC_NODE": 156.4877, "ARG_OF_PERICENTER": 225.9161, "MEAN_ANOMALY": 133.4108, "EPHEMERIS_TYPE": 0, "CLASSIFICATION_TYPE": "U", "NORAD_CAT_ID": 39533, "ELEMENT_SET_NO": 999, "REV_AT_EPOCH": 8616, "BSTAR": 0, "MEAN_MOTION_DOT": 8.2e-07, "MEAN_MOTION_DDOT": 0}, "tle": {"line1": "1 39533U 14008A   25357.67806737  .00000082  00000+0  00000+0 0  9990", "line2": "2 39533  53.5993 156.4877 0079553 225.9161 133.4108  2.00548852 86167"}}, "geometry": {"type": "Point", "coordinates": [5.912640968252643, -33.72922837187381]}}, {"type": "Feature", "properties": {"norad_id": 39617, "name": "ASTRA 5B (EGNOS/PRN 123)", "group": "gnss", "lat": -0.06447368015176612, "lon": -67.82365490387483, "alt_km": 35767.09287797353, "timestamp": "2025-12-25T11:37:44.677991+00:00", "meta": {"OBJECT_NAME": "ASTRA 5B (EGNOS/PRN 123)", "OBJECT_ID": "2014-011B", "EPOCH": "2025-12-24T23:28:56.409024", "MEAN_MOTION": 1.00271157, "ECCENTRICITY": 0.0004616, "INCLINATION": 0.0444, "RA_OF_ASC_NODE": 13.6619, "ARG_OF_PERICENTER": 266.4538, "MEAN_ANOMALY": 189.3571, "EPHEMERIS_TYPE": 0, "CLASSIFICATION_TYPE": "U", "NORAD_CAT_ID": 39617, "ELEMENT_SET_NO": 999, "REV_AT_EPOCH": 4292, "BSTAR": 0, "MEAN_MOTION_DOT": 1.58e-06, "MEAN_MOTION_DDOT": 0}, "tle": {"line1": "1 39617U 14011B   25358.97843066  .00000158  00000+0  00000+0 0  9991", "line2": "2 39617   0.0444  13.6619 0004616 266.4538 189.3571  1.00271157 42922"}}, "geometry": {"type": "Point", "coordinates": [-67.82365490387483, -0.06447368015176612]}}]}